ENTRYSAT                
1 44429U 98067QP  19259.86274577  .00006379  00000-0  10917-3 0  9991
2 44429  51.6406 265.7973 0003884  33.4216 326.7019 15.52626709 11786
VCC C                   
1 44430U 98067QQ  19260.18615570  .00009057  00000-0  15161-3 0  9994
2 44430  51.6407 264.2074 0004166  42.3673 317.7638 15.52662576 10659
VCC B                   
1 44431U 98067QR  19259.86726579  .00005558  00000-0  96609-4 0  9999
2 44431  51.6407 265.8273 0004183  39.7326 320.3970 15.52475997 11729
